{"type": "FeatureCollection", "features": [{"type": "Feature", "properties": {"norad_id": 66310, "name": "LVM3 R/B", "group": "last-30-days", "lat": 15.961595815517107, "lon": -168.7708750257913, "alt_km": 22498.540674212476, "timestamp": "2025-12-01T03:58:49.497791+00:00", "meta": {"OBJECT_NAME": "LVM3 R/B", "OBJECT_ID": "2025-249A", "EPOCH": "2025-11-30T01:39:41.511744", "MEAN_MOTION": 3.14154353, "ECCENTRICITY": 0.66694835, "INCLINATION": 21.3469, "RA_OF_ASC_NODE": 144.7332, "ARG_OF_PERICENTER": 206.7231, "MEAN_ANOMALY": 92.3964, "EPHEMERIS_TYPE": 0, "CLASSIFICATION_TYPE": "U", "NORAD_CAT_ID": 66310, "ELEMENT_SET_NO": 999, "REV_AT_EPOCH": 88, "BSTAR": 0.0013035202, "MEAN_MOTION_DOT": 0.00047337, "MEAN_MOTION_DDOT": 2.76296e-07, "GROUP": "last-30-days"}, "tle": {"line1": "1 66310U 25249A   25334.06923046  .00047337  27630-6  13035-2 0  9997", "line2": "2 66310  21.3469 144.7332 6669483 206.7231  92.3964  3.14154353   888"}}, "geometry": {"type": "Point", "coordinates": [-168.7708750257913, 15.961595815517107]}}, {"type": "Feature", "properties": {"norad_id": 66317, "name": "ELECTRON R/B", "group": "last-30-days", "lat": -12.184305565402433, "lon": -44.16206584988473, "alt_km": 338.62171568223584, "timestamp": "2025-12-01T03:58:49.497840+00:00", "meta": {"OBJECT_NAME": "ELECTRON R/B", "OBJECT_ID": "2025-252B", "EPOCH": "2025-11-29T21:07:58.211904", "MEAN_MOTION": 15.94243293, "ECCENTRICITY": 0.01246685, "INCLINATION": 41.9889, "RA_OF_ASC_NODE": 130.1303, "ARG_OF_PERICENTER": 46.1701, "MEAN_ANOMALY": 314.9386, "EPHEMERIS_TYPE": 0, "CLASSIFICATION_TYPE": "U", "NORAD_CAT_ID": 66317, "ELEMENT_SET_NO": 999, "REV_AT_EPOCH": 378, "BSTAR": 0.0019142518, "MEAN_MOTION_DOT": 0.01669799, "MEAN_MOTION_DDOT": 7.910989e-06, "GROUP": "last-30-days"}, "tle": {"line1": "1 66317U 25252B   25333.88053486  .01669799  79110-5  19143-2 0  9997", "line2": "2 66317  41.9889 130.1303 0124668  46.1701 314.9386 15.94243293  3785"}}, "geometry": {"type": "Point", "coordinates": [-44.16206584988473, -12.184305565402433]}}, {"type": "Feature", "properties": {"norad_id": 66377, "name": "CZ-11 DEB", "group": "last-30-days", "lat": 46.36101953847727, "lon": 0.6937567816942761, "alt_km": 433.4397529172911, "timestamp": "2025-12-01T03:58:49.497872+00:00", "meta": {"OBJECT_NAME": "CZ-11 DEB", "OBJECT_ID": "2025-255B", "EPOCH": "2025-11-30T19:42:51.512256", "MEAN_MOTION": 15.43300806, "ECCENTRICITY": 0.0013932, "INCLINATION": 52.9961, "RA_OF_ASC_NODE": 234.6028, "ARG_OF_PERICENTER": 3.0137, "MEAN_ANOMALY": 357.0949, "EPHEMERIS_TYPE": 0, "CLASSIFICATION_TYPE": "U", "NORAD_CAT_ID": 66377, "ELEMENT_SET_NO": 999, "REV_AT_EPOCH": 337, "BSTAR": 0.00094669, "MEAN_MOTION_DOT": 0.00042771, "MEAN_MOTION_DDOT": 0, "GROUP": "last-30-days"}, "tle": {"line1": "1 66377U 25255B   25334.82142954  .00042771  00000+0  94669-3 0  9997", "line2": "2 66377  52.9961 234.6028 0013932   3.0137 357.0949 15.43300806  3370"}}, "geometry": {"type": "Point", "coordinates": [0.6937567816942761, 46.36101953847727]}}, {"type": "Feature", "properties": {"norad_id": 66379, "name": "SHIYAN-32 03", "group": "last-30-days", "lat": 52.89892876047929, "lon": -41.299956323069864, "alt_km": 429.70079947309296, "timestamp": "2025-12-01T03:58:49.497887+00:00", "meta": {"OBJECT_NAME": "SHIYAN-32 03", "OBJECT_ID": "2025-255D", "EPOCH": "2025-11-30T19:49:44.924160", "MEAN_MOTION": 15.42511298, "ECCENTRICITY": 0.0015334, "INCLINATION": 52.9969, "RA_OF_ASC_NODE": 234.634, "ARG_OF_PERICENTER": 6.3202, "MEAN_ANOMALY": 353.7992, "EPHEMERIS_TYPE": 0, "CLASSIFICATION_TYPE": "U", "NORAD_CAT_ID": 66379, "ELEMENT_SET_NO": 999, "REV_AT_EPOCH": 339, "BSTAR": 0.00046626, "MEAN_MOTION_DOT": 0.00020248, "MEAN_MOTION_DDOT": 0, "GROUP": "last-30-days"}, "tle": {"line1": "1 66379U 25255D   25334.82621440  .00020248  00000+0  46626-3 0  9996", "line2": "2 66379  52.9969 234.6340 0015334   6.3202 353.7992 15.42511298  3395"}}, "geometry": {"type": "Point", "coordinates": [-41.299956323069864, 52.89892876047929]}}, {"type": "Feature", "properties": {"norad_id": 66411, "name": "ZK-1A R/B", "group": "last-30-days", "lat": -57.73329044334579, "lon": -151.3058804202547, "alt_km": 454.1801314311033, "timestamp": "2025-12-01T03:58:49.497906+00:00", "meta": {"OBJECT_NAME": "ZK-1A R/B", "OBJECT_ID": "2025-256C", "EPOCH": "2025-11-20T17:22:35.449824", "MEAN_MOTION": 15.012361, "ECCENTRICITY": 0.02323532, "INCLINATION": 98.3243, "RA_OF_ASC_NODE": 30.9055, "ARG_OF_PERICENTER": 318.4537, "MEAN_ANOMALY": 39.9225, "EPHEMERIS_TYPE": 0, "CLASSIFICATION_TYPE": "U", "NORAD_CAT_ID": 66411, "ELEMENT_SET_NO": 999, "REV_AT_EPOCH": 174, "BSTAR": 0.00048987823, "MEAN_MOTION_DOT": 0.00011214, "MEAN_MOTION_DDOT": 0, "GROUP": "last-30-days"}, "tle": {"line1": "1 66411U 25256C   25324.72402141  .00011214  00000+0  48988-3 0  9993", "line2": "2 66411  98.3243  30.9055 0232353 318.4537  39.9225 15.01236100  1741"}}, "geometry": {"type": "Point", "coordinates": [-151.3058804202547, -57.73329044334579]}}, {"type": "Feature", "properties": {"norad_id": 66421, "name": "CZ-12 R/B", "group": "last-30-days", "lat": 49.6286681041716, "lon": 29.189927090397884, "alt_km": 769.1594811362374, "timestamp": "2025-12-01T03:58:49.497921+00:00", "meta": {"OBJECT_NAME": "CZ-12 R/B", "OBJECT_ID": "2025-258K", "EPOCH": "2025-11-30T10:57:33.018624", "MEAN_MOTION": 14.42314877, "ECCENTRICITY": 0.00645425, "INCLINATION": 49.9953, "RA_OF_ASC_NODE": 311.2478, "ARG_OF_PERICENTER": 205.2563, "MEAN_ANOMALY": 154.5197, "EPHEMERIS_TYPE": 0, "CLASSIFICATION_TYPE": "U", "NORAD_CAT_ID": 66421, "ELEMENT_SET_NO": 999, "REV_AT_EPOCH": 294, "BSTAR": 2.3738732e-05, "MEAN_MOTION_DOT": -9e-07, "MEAN_MOTION_DDOT": 0, "GROUP": "last-30-days"}, "tle": {"line1": "1 66421U 25258K   25334.45663216 -.00000090  00000+0  23739-4 0  9998", "line2": "2 66421  49.9953 311.2478 0064542 205.2563 154.5197 14.42314877  2948"}}, "geometry": {"type": "Point", "coordinates": [29.189927090397884, 49.6286681041716]}}, {"type": "Feature", "properties": {"norad_id": 66455, "name": "ATLAS 5 CENTAUR R/B", "group": "last-30-days", "lat": 0.5940157584439587, "lon": 107.26656545401863, "alt_km": 12363.64835782953, "timestamp": "2025-12-01T03:58:49.497941+00:00", "meta": {"OBJECT_NAME": "ATLAS 5 CENTAUR R/B", "OBJECT_ID": "2025-261B", "EPOCH": "2025-11-26T18:27:12.771648", "MEAN_MOTION": 2.28258333, "ECCENTRICITY": 0.23299319, "INCLINATION": 6.1673, "RA_OF_ASC_NODE": 293.2138, "ARG_OF_PERICENTER": 183.2713, "MEAN_ANOMALY": 340.9993, "EPHEMERIS_TYPE": 0, "CLASSIFICATION_TYPE": "U", "NORAD_CAT_ID": 66455, "ELEMENT_SET_NO": 999, "REV_AT_EPOCH": 28, "BSTAR": 0, "MEAN_MOTION_DOT": -5.2e-07, "MEAN_MOTION_DDOT": 0, "GROUP": "last-30-days"}, "tle": {"line1": "1 66455U 25261B   25330.76889782 -.00000052  00000+0  00000+0 0  9996", "line2": "2 66455   6.1673 293.2138 2329931 183.2713 340.9993  2.28258333   286"}}, "geometry": {"type": "Point", "coordinates": [107.26656545401863, 0.5940157584439587]}}, {"type": "Feature", "properties": {"norad_id": 66548, "name": "CZ-2C R/B", "group": "last-30-days", "lat": -21.382121095178587, "lon": 8.614743784577003, "alt_km": 534.6535588416818, "timestamp": "2025-12-01T03:58:49.497968+00:00", "meta": {"OBJECT_NAME": "CZ-2C R/B", "OBJECT_ID": "2025-266D", "EPOCH": "2025-11-30T04:35:02.311872", "MEAN_MOTION": 15.29753405, "ECCENTRICITY": 0.0085083, "INCLINATION": 52.055, "RA_OF_ASC_NODE": 31.0469, "ARG_OF_PERICENTER": 130.2875, "MEAN_ANOMALY": 230.5588, "EPHEMERIS_TYPE": 0, "CLASSIFICATION_TYPE": "U", "NORAD_CAT_ID": 66548, "ELEMENT_SET_NO": 999, "REV_AT_EPOCH": 169, "BSTAR": 0.00040032, "MEAN_MOTION_DOT": 0.00012686, "MEAN_MOTION_DDOT": 0, "GROUP": "last-30-days"}, "tle": {"line1": "1 66548U 25266D   25334.19099898  .00012686  00000+0  40032-3 0  9994", "line2": "2 66548  52.0550  31.0469 0085083 130.2875 230.5588 15.29753405  1699"}}, "geometry": {"type": "Point", "coordinates": [8.614743784577003, -21.382121095178587]}}, {"type": "Feature", "properties": {"norad_id": 66550, "name": "CZ-7A R/B", "group": "last-30-days", "lat": 0.026855806999648568, "lon": -84.52618004383925, "alt_km": 34228.962171392544, "timestamp": "2025-12-01T03:58:49.497982+00:00", "meta": {"OBJECT_NAME": "CZ-7A R/B", "OBJECT_ID": "2025-277B", "EPOCH": "2025-11-30T08:01:25.993632", "MEAN_MOTION": 2.39605114, "ECCENTRICITY": 0.7237467, "INCLINATION": 14.4324, "RA_OF_ASC_NODE": 275.746, "ARG_OF_PERICENTER": 177.891, "MEAN_ANOMALY": 189.228, "EPHEMERIS_TYPE": 0, "CLASSIFICATION_TYPE": "U", "NORAD_CAT_ID": 66550, "ELEMENT_SET_NO": 999, "REV_AT_EPOCH": 3, "BSTAR": 0.00039957, "MEAN_MOTION_DOT": 0.00091857, "MEAN_MOTION_DDOT": -3.3208e-07, "GROUP": "last-30-days"}, "tle": {"line1": "1 66550U 25277B   25334.33432863  .00091857 -33208-6  39957-3 0  9993", "line2": "2 66550  14.4324 275.7460 7237467 177.8910 189.2280  2.39605114    36"}}, "geometry": {"type": "Point", "coordinates": [-84.52618004383925, 0.026855806999648568]}}, {"type": "Feature", "properties": {"norad_id": 66555, "name": "ELECTRON KICK STAGE R/B", "group": "last-30-days", "lat": -41.53995040268995, "lon": 43.97372313658641, "alt_km": 469.972249458845, "timestamp": "2025-12-01T03:58:49.497994+00:00", "meta": {"OBJECT_NAME": "ELECTRON KICK STAGE R/B", "OBJECT_ID": "2025-267B", "EPOCH": "2025-11-30T11:07:36.501024", "MEAN_MOTION": 15.31955183, "ECCENTRICITY": 0.00076028, "INCLINATION": 42.0172, "RA_OF_ASC_NODE": 127.7902, "ARG_OF_PERICENTER": 326.1836, "MEAN_ANOMALY": 33.8516, "EPHEMERIS_TYPE": 0, "CLASSIFICATION_TYPE": "U", "NORAD_CAT_ID": 66555, "ELEMENT_SET_NO": 999, "REV_AT_EPOCH": 152, "BSTAR": 0.00082617007, "MEAN_MOTION_DOT": 0.00025902, "MEAN_MOTION_DDOT": 0, "GROUP": "last-30-days"}, "tle": {"line1": "1 66555U 25267B   25334.46361691  .00025902  00000+0  82617-3 0  9996", "line2": "2 66555  42.0172 127.7902 0007602 326.1836  33.8516 15.31955183  1522"}}, "geometry": {"type": "Point", "coordinates": [43.97372313658641, -41.53995040268995]}}, {"type": "Feature", "properties": {"norad_id": 66587, "name": "CZ-3B R/B", "group": "last-30-days", "lat": 36.550355479406576, "lon": -151.31952434891204, "alt_km": 39809.66775719195, "timestamp": "2025-12-01T03:58:49.498016+00:00", "meta": {"OBJECT_NAME": "CZ-3B R/B", "OBJECT_ID": "2025-269B", "EPOCH": "2025-11-23T12:20:01.405824", "MEAN_MOTION": 2.01516013, "ECCENTRICITY": 0.75253415, "INCLINATION": 51.3768, "RA_OF_ASC_NODE": 174.0599, "ARG_OF_PERICENTER": 225.2938, "MEAN_ANOMALY": 41.2116, "EPHEMERIS_TYPE": 0, "CLASSIFICATION_TYPE": "U", "NORAD_CAT_ID": 66587, "ELEMENT_SET_NO": 999, "REV_AT_EPOCH": 6, "BSTAR": 0.00049596604, "MEAN_MOTION_DOT": 0.0001032, "MEAN_MOTION_DDOT": -9.13844e-07, "GROUP": "last-30-days"}, "tle": {"line1": "1 66587U 25269B   25327.51390516  .00010320 -91384-6  49597-3 0  9990", "line2": "2 66587  51.3768 174.0599 7525341 225.2938  41.2116  2.01516013    67"}}, "geometry": {"type": "Point", "coordinates": [-151.31952434891204, 36.550355479406576]}}, {"type": "Feature", "properties": {"norad_id": 66663, "name": "KSLV-II R/B", "group": "last-30-days", "lat": -14.483877945141884, "lon": 80.60643761221053, "alt_km": 609.6295326943537, "timestamp": "2025-12-01T03:58:49.498038+00:00", "meta": {"OBJECT_NAME": "KSLV-II R/B", "OBJECT_ID": "2025-274P", "EPOCH": "2025-11-30T19:05:37.538304", "MEAN_MOTION": 14.97216641, "ECCENTRICITY": 0.0044329, "INCLINATION": 97.7404, "RA_OF_ASC_NODE": 262.2533, "ARG_OF_PERICENTER": 358.2629, "MEAN_ANOMALY": 1.8431, "EPHEMERIS_TYPE": 0, "CLASSIFICATION_TYPE": "U", "NORAD_CAT_ID": 66663, "ELEMENT_SET_NO": 999, "REV_AT_EPOCH": 62, "BSTAR": -0.00029874, "MEAN_MOTION_DOT": -3.586e-05, "MEAN_MOTION_DDOT": 0, "GROUP": "last-30-days"}, "tle": {"line1": "1 66663U 25274P   25334.79557336 -.00003586  00000+0 -29874-3 0  9995", "line2": "2 66663  97.7404 262.2533 0044329 358.2629   1.8431 14.97216641   626"}}, "geometry": {"type": "Point", "coordinates": [80.60643761221053, -14.483877945141884]}}]}